0 THORAD AGENA D DEB
1 04458U 69082FB  14250.43990860  .05155409  10371+0  76037-2 0  6135
2 04458 069.7084 090.4185 0014960 242.2763 192.7929 16.12121065372927
0 SL-3 R/B
1 11683U 80008B   14250.61990580  .00176589  10625-4  49126-3 0  4674
2 11683 081.1603 284.3909 0006511 124.3283 235.8605 15.93622605905362
0 COSMOS 1400
1 13402U 82079A   14250.81108189  .00957628  59171-3  74912-3 0  4639
2 13402 081.1010 326.9731 0007127 264.1959 211.4033 16.14834365763277
0 ARIANE 1 DEB
1 17459U 86019GW  14250.65368575  .00464199  00000-0  38526-2 0  1314
2 17459 098.2104 105.4242 0003418 169.7752 190.3577 15.68777550480086
0 DELTA 1 DEB
1 21348U 75052BS  14250.69445316  .00587384  00000-0  21473-1 0  7897
2 21348 099.3507 122.1891 0021034 174.4135 223.9283 15.25688867190759